{
  "type": "FeatureCollection",
  "features": [
    {
      "type": "Feature",
      "properties": {
        "norad_id": 66574,
        "name": "STARLINK-35812",
        "group": "last-30-days",
        "lat": 42.962624170428576,
        "lon": -98.80333151861853,
        "alt_km": 344.1687121134146,
        "timestamp": "2025-12-03T22:42:31.476638+00:00",
        "meta_object_name": "STARLINK-35812",
        "meta_object_id": "2025-268T",
        "meta_epoch": "2025-12-03T12:00:02.998944",
        "meta_mean_motion": 15.75088817,
        "meta_eccentricity": 0.000152,
        "meta_inclination": 42.9988,
        "meta_ra_of_asc_node": 175.7773,
        "meta_arg_of_pericenter": 265.9847,
        "meta_mean_anomaly": 171.1899,
        "meta_ephemeris_type": 0,
        "meta_classification_type": "U",
        "meta_norad_cat_id": 66574,
        "meta_element_set_no": 999,
        "meta_rev_at_epoch": 318,
        "meta_bstar": -0.014208,
        "meta_mean_motion_dot": -0.01902068,
        "meta_mean_motion_ddot": 0,
        "tle_line1": "1 66574U 25268T   25337.50003471 -.01902068  00000+0 -14208-1 0  9994",
        "tle_line2": "2 66574  42.9988 175.7773 0001520 265.9847 171.1899 15.75088817  3184"
      },
      "geometry": {
        "type": "Point",
        "coordinates": [
          -98.80333151861853,
          42.962624170428576
        ]
      }
    },
    {
      "type": "Feature",
      "properties": {
        "norad_id": 66575,
        "name": "STARLINK-35810",
        "group": "last-30-days",
        "lat": 42.97568186776977,
        "lon": -96.19235062845969,
        "alt_km": 344.26049838526706,
        "timestamp": "2025-12-03T22:42:31.476647+00:00",
        "meta_object_name": "STARLINK-35810",
        "meta_object_id": "2025-268U",
        "meta_epoch": "2025-12-03T12:00:02.998944",
        "meta_mean_motion": 15.75062725,
        "meta_eccentricity": 0.0001748,
        "meta_inclination": 42.9989,
        "meta_ra_of_asc_node": 175.7727,
        "meta_arg_of_pericenter": 266.9432,
        "meta_mean_anomaly": 172.1463,
        "meta_ephemeris_type": 0,
        "meta_classification_type": "U",
        "meta_norad_cat_id": 66575,
        "meta_element_set_no": 999,
        "meta_rev_at_epoch": 318,
        "meta_bstar": -0.013855,
        "meta_mean_motion_dot": -0.01859297,
        "meta_mean_motion_ddot": 0,
        "tle_line1": "1 66575U 25268U   25337.50003471 -.01859297  00000+0 -13855-1 0  9997",
        "tle_line2": "2 66575  42.9989 175.7727 0001748 266.9432 172.1463 15.75062725  3186"
      },
      "geometry": {
        "type": "Point",
        "coordinates": [
          -96.19235062845969,
          42.97568186776977
        ]
      }
    },
    {
      "type": "Feature",
      "properties": {
        "norad_id": 66576,
        "name": "STARLINK-35814",
        "group": "last-30-days",
        "lat": 42.928758390235934,
        "lon": -93.57478313678591,
        "alt_km": 344.1736326302689,
        "timestamp": "2025-12-03T22:42:31.476656+00:00",
        "meta_object_name": "STARLINK-35814",
        "meta_object_id": "2025-268V",
        "meta_epoch": "2025-12-03T12:00:02.998944",
        "meta_mean_motion": 15.75068261,
        "meta_eccentricity": 0.0001607,
        "meta_inclination": 42.9988,
        "meta_ra_of_asc_node": 175.7678,
        "meta_arg_of_pericenter": 265.6803,
        "meta_mean_anomaly": 175.3257,
        "meta_ephemeris_type": 0,
        "meta_classification_type": "U",
        "meta_norad_cat_id": 66576,
        "meta_element_set_no": 999,
        "meta_rev_at_epoch": 318,
        "meta_bstar": -0.013917,
        "meta_mean_motion_dot": -0.01866857,
        "meta_mean_motion_ddot": 0,
        "tle_line1": "1 66576U 25268V   25337.50003471 -.01866857  00000+0 -13917-1 0  9997",
        "tle_line2": "2 66576  42.9988 175.7678 0001607 265.6803 175.3257 15.75068261  3180"
      },
      "geometry": {
        "type": "Point",
        "coordinates": [
          -93.57478313678591,
          42.928758390235934
        ]
      }
    },
    {
      "type": "Feature",
      "properties": {
        "norad_id": 66577,
        "name": "STARLINK-35815",
        "group": "last-30-days",
        "lat": 42.822592372476976,
        "lon": -90.97294329942085,
        "alt_km": 343.94946938101566,
        "timestamp": "2025-12-03T22:42:31.476666+00:00",
        "meta_object_name": "STARLINK-35815",
        "meta_object_id": "2025-268W",
        "meta_epoch": "2025-12-03T12:00:02.998944",
        "meta_mean_motion": 15.75049436,
        "meta_eccentricity": 0.0001354,
        "meta_inclination": 42.9987,
        "meta_ra_of_asc_node": 175.763,
        "meta_arg_of_pericenter": 257.6569,
        "meta_mean_anomaly": 185.2739,
        "meta_ephemeris_type": 0,
        "meta_classification_type": "U",
        "meta_norad_cat_id": 66577,
        "meta_element_set_no": 999,
        "meta_rev_at_epoch": 318,
        "meta_bstar": -0.013741,
        "meta_mean_motion_dot": -0.01844712,
        "meta_mean_motion_ddot": 0,
        "tle_line1": "1 66577U 25268W   25337.50003471 -.01844712  00000+0 -13741-1 0  9999",
        "tle_line2": "2 66577  42.9987 175.7630 0001354 257.6569 185.2739 15.75049436  3185"
      },
      "geometry": {
        "type": "Point",
        "coordinates": [
          -90.97294329942085,
          42.822592372476976
        ]
      }
    },
    {
      "type": "Feature",
      "properties": {
        "norad_id": 66578,
        "name": "STARLINK-35743",
        "group": "last-30-days",
        "lat": 42.65692769849685,
        "lon": -88.37297405285938,
        "alt_km": 343.99282695471993,
        "timestamp": "2025-12-03T22:42:31.476675+00:00",
        "meta_object_name": "STARLINK-35743",
        "meta_object_id": "2025-268X",
        "meta_epoch": "2025-12-03T12:00:02.998944",
        "meta_mean_motion": 15.75060508,
        "meta_eccentricity": 0.0001359,
        "meta_inclination": 42.9987,
        "meta_ra_of_asc_node": 175.7582,
        "meta_arg_of_pericenter": 259.4665,
        "meta_mean_anomaly": 185.3761,
        "meta_ephemeris_type": 0,
        "meta_classification_type": "U",
        "meta_norad_cat_id": 66578,
        "meta_element_set_no": 999,
        "meta_rev_at_epoch": 318,
        "meta_bstar": -0.013851,
        "meta_mean_motion_dot": -0.01858305,
        "meta_mean_motion_ddot": 0,
        "tle_line1": "1 66578U 25268X   25337.50003471 -.01858305  00000+0 -13851-1 0  9995",
        "tle_line2": "2 66578  42.9987 175.7582 0001359 259.4665 185.3761 15.75060508  3183"
      },
      "geometry": {
        "type": "Point",
        "coordinates": [
          -88.37297405285938,
          42.65692769849685
        ]
      }
    },
    {
      "type": "Feature",
      "properties": {
        "norad_id": 66579,
        "name": "STARLINK-35868",
        "group": "last-30-days",
        "lat": 42.432616559507295,
        "lon": -85.78857719485235,
        "alt_km": 344.4285195919638,
        "timestamp": "2025-12-03T22:42:31.476684+00:00",
        "meta_object_name": "STARLINK-35868",
        "meta_object_id": "2025-268Y",
        "meta_epoch": "2025-12-03T12:00:02.998944",
        "meta_mean_motion": 15.75053408,
        "meta_eccentricity": 0.0001886,
        "meta_inclination": 42.9988,
        "meta_ra_of_asc_node": 175.7532,
        "meta_arg_of_pericenter": 267.2157,
        "meta_mean_anomaly": 179.5494,
        "meta_ephemeris_type": 0,
        "meta_classification_type": "U",
        "meta_norad_cat_id": 66579,
        "meta_element_set_no": 999,
        "meta_rev_at_epoch": 318,
        "meta_bstar": -0.013803,
        "meta_mean_motion_dot": -0.01852745,
        "meta_mean_motion_ddot": 0,
        "tle_line1": "1 66579U 25268Y   25337.50003471 -.01852745  00000+0 -13803-1 0  9995",
        "tle_line2": "2 66579  42.9988 175.7532 0001886 267.2157 179.5494 15.75053408  3187"
      },
      "geometry": {
        "type": "Point",
        "coordinates": [
          -85.78857719485235,
          42.432616559507295
        ]
      }
    },
    {
      "type": "Feature",
      "properties": {
        "norad_id": 66580,
        "name": "STARLINK-35872",
        "group": "last-30-days",
        "lat": 42.15074661129815,
        "lon": -83.22817225682289,
        "alt_km": 344.4177310424302,
        "timestamp": "2025-12-03T22:42:31.476693+00:00",
        "meta_object_name": "STARLINK-35872",
        "meta_object_id": "2025-268Z",
        "meta_epoch": "2025-12-03T12:00:02.998944",
        "meta_mean_motion": 15.75054095,
        "meta_eccentricity": 0.0001828,
        "meta_inclination": 42.9987,
        "meta_ra_of_asc_node": 175.7489,
        "meta_arg_of_pericenter": 266.5127,
        "meta_mean_anomaly": 182.1678,
        "meta_ephemeris_type": 0,
        "meta_classification_type": "U",
        "meta_norad_cat_id": 66580,
        "meta_element_set_no": 999,
        "meta_rev_at_epoch": 318,
        "meta_bstar": -0.013804,
        "meta_mean_motion_dot": -0.01852806,
        "meta_mean_motion_ddot": 0,
        "tle_line1": "1 66580U 25268Z   25337.50003471 -.01852806  00000+0 -13804-1 0  9996",
        "tle_line2": "2 66580  42.9987 175.7489 0001828 266.5127 182.1678 15.75054095  3181"
      },
      "geometry": {
        "type": "Point",
        "coordinates": [
          -83.22817225682289,
          42.15074661129815
        ]
      }
    }
  ]
}